STARLINK-11400 [DTC]    
1 63017U 25032N   26177.62343113  .00281552  00000+0  21047-2 0  9993
2 63017  43.0007 258.9538 0001766 310.2935  49.7778 15.71060383 79345
STARLINK-32870          
1 63018U 25032P   26177.78354848  .00012667  00000+0  46925-3 0  9990
2 63018  42.9989  80.0136 0000930 244.2343 115.8412 15.27563696 77302
STARLINK-32872          
1 63019U 25032Q   26177.80539435  .00022259  00000+0  81571-3 0  9995
2 63019  43.0010  80.1854 0001595 262.5176  97.5494 15.27590043 77305
STARLINK-32677          
1 63020U 25032R   26177.78740230  .00012945  00000+0  47932-3 0  9995
2 63020  42.9980  80.0444 0000822 228.2440 131.8341 15.27564856 77294
STARLINK-32929          
1 63021U 25032S   26177.79127564  .00020318  00000+0  74596-3 0  9995
2 63021  43.0016  80.0755 0001094 257.1381 102.9349 15.27575112 77305
STARLINK-32944          
1 63022U 25032T   26177.74386305  .00008458  00000+0  31656-3 0  9992
2 63022  42.9973  80.5834 0003574 297.7362  62.3126 15.27575415 77299
STARLINK-32943          
1 63023U 25032U   26177.76555643  .00019192  00000+0  70569-3 0  9991
2 63023  43.0017  79.8855 0001139 276.2875  83.7847 15.27553233 77304
STARLINK-32803          
1 63024U 25032V   26177.76170045 -.00002429  00000+0 -78828-4 0  9995
2 63024  43.0029  79.8503 0001690 263.4497  96.6162 15.27552987 77148
STARLINK-32926          
1 63025U 25032W   26177.42834044  .00017490  00000+0  64331-3 0  9990
2 63025  42.9980  81.6409 0001651 282.4747  77.5920 15.27592997 77252
STARLINK-32798          
1 63029U 25034A   26177.86072883  .00020549  00000+0  70382-3 0  9991
2 63029  53.1578 123.6625 0001351  69.8811 290.2335 15.30207841 75624
STARLINK-32779          
1 63030U 25034B   26177.08540324  .00020215  00000+0  60784-3 0  9992
2 63030  53.1585 127.3604 0001198  85.9017 274.2123 15.34398041 75509
STARLINK-32716          
1 63031U 25034C   26177.95256208  .00019150  00000+0  57680-3 0  9991
2 63031  53.1576 109.3198 0001072  70.6808 289.4311 15.34380619 75833
STARLINK-32776          
1 63032U 25034D   26177.97572248  .00031546  00000+0  93992-3 0  9998
2 63032  53.1571 109.4627 0001213 103.0991 257.0147 15.34432158 75832
STARLINK-32772          
1 63033U 25034E   26177.91668981 -.00009695  00000+0 -30103-3 0  9990
2 63033  53.1601 110.6199 0001578  94.3105 215.3758 15.31700553  5661
STARLINK-32830          
1 63034U 25034F   26177.10080996  .00027659  00000+0  89917-3 0  9991
2 63034  53.1582 113.9580 0001083  78.5344 281.5779 15.31721336 75690
STARLINK-32801          
1 63035U 25034G   26177.96097902  .00024051  00000+0  72086-3 0  9993
2 63035  53.1561 109.3721 0001042  91.9300 268.1821 15.34392171 75828
STARLINK-32818          
1 63036U 25034H   26177.55471422  .00015925  00000+0  54874-3 0  9997
2 63036  53.1585 112.5239 0001247  90.6377 269.4767 15.30195337 75758
STARLINK-32810          
1 63037U 25034J   26177.53868975  .00020739  00000+0  62327-3 0  9990
2 63037  53.1602 111.7177 0001471  89.0050 271.1121 15.34398050 75766
STARLINK-32812          
1 63038U 25034K   26177.82017641  .00027546  00000+0  93751-3 0  9997
2 63038  53.1584 111.3306 0001304  71.0069 289.1073 15.30241488 75798
STARLINK-32811          
1 63039U 25034L   26177.81186181  .00043013  00000+0  12777-2 0  9998
2 63039  53.1597 110.5764 0001976 109.2037 250.9179 15.34380263 75800
STARLINK-32832          
1 63040U 25034M   26177.55287936  .00020781  00000+0  67858-3 0  9999
2 63040  53.1592 111.7991 0001507 144.5433 215.5669 15.31746685 75761
STARLINK-32820          
1 63041U 25034N   26177.81491951  .00022744  00000+0  77823-3 0  9997
2 63041  53.1590 111.2989 0001000  67.9703 292.1405 15.30177444 75790
STARLINK-32795          
1 63042U 25034P   26177.95887565  .00036073  00000+0  10732-2 0  9998
2 63042  53.1579 109.3568 0001287 112.2270 247.8870 15.34412202 75835
STARLINK-32827          
1 63043U 25034Q   26177.87496869  .00041154  00000+0  12218-2 0  9990
2 63043  53.1565 122.3325 0001272  88.3653 271.7495 15.34416374 75641
STARLINK-32735          
1 63044U 25034R   26177.85604210  .00032312  00000+0  96282-3 0  9990
2 63044  53.1572 122.2140 0001158  99.3994 260.7139 15.34417140 75642
STARLINK-32828          
1 63045U 25034S   26177.93848730  .00036935  00000+0  10993-2 0  9996
2 63045  53.1583 123.4296 0001349 338.4990  21.5956 15.34387530 75633
STARLINK-32738          
1 63046U 25034T   26177.79713432  .00024409  00000+0  73130-3 0  9997
2 63046  53.1576 110.4817 0002227  86.4018 273.7239 15.34395033 75809
STARLINK-32590          
1 63047U 25034U   26177.55576522  .00015146  00000+0  52237-3 0  9992
2 63047  53.1573 112.5246 0001123 102.0077 258.1050 15.30204788 75743
STARLINK-32790          
1 63048U 25034V   26177.80765136  .00012689  00000+0  38623-3 0  9994
2 63048  53.1588 110.5446 0001907  98.3343 261.7876 15.34385212 75802
STARLINK-32829          
1 63049U 25034W   26177.87284323  .00024059  00000+0  72004-3 0  9991
2 63049  53.1570 122.3165 0001190  93.8377 266.2762 15.34437930 75645
