OBJECT_NAME,OBJECT_ID,EPOCH,MEAN_MOTION,ECCENTRICITY,INCLINATION,RA_OF_ASC_NODE,ARG_OF_PERICENTER,MEAN_ANOMALY,EPHEMERIS_TYPE,CLASSIFICATION_TYPE,NORAD_CAT_ID,ELEMENT_SET_NO,REV_AT_EPOCH,BSTAR,MEAN_MOTION_DOT,MEAN_MOTION_DDOT
STARLINK-11400 [DTC],2025-032N,2026-06-26T14:57:44.449632,15.71060383,.00017665,43.0007,258.9538,310.2935,49.7778,0,U,63017,999,7934,.21046629E-2,.281552E-2,0
STARLINK-32870,2025-032P,2026-06-26T18:48:18.588672,15.27563696,.000093,42.9989,80.0136,244.2343,115.8412,0,U,63018,999,7730,.46925466E-3,.12667E-3,0
STARLINK-32872,2025-032Q,2026-06-26T19:19:46.071840,15.27590043,.0001595,43.0010,80.1854,262.5176,97.5494,0,U,63019,999,7730,.81570726E-3,.22259E-3,0
STARLINK-32677,2025-032R,2026-06-26T18:53:51.558720,15.27564856,.00008223,42.9980,80.0444,228.2440,131.8341,0,U,63020,999,7729,.47931679E-3,.12945E-3,0
STARLINK-32929,2025-032S,2026-06-26T18:59:26.215296,15.27575112,.00010947,43.0016,80.0755,257.1381,102.9349,0,U,63021,999,7730,.74595871E-3,.20318E-3,0
STARLINK-32944,2025-032T,2026-06-26T17:51:09.767520,15.27575415,.00035745,42.9973,80.5834,297.7362,62.3126,0,U,63022,999,7729,.31655825E-3,.8458E-4,0
STARLINK-32943,2025-032U,2026-06-26T18:22:24.075552,15.27553233,.00011394,43.0017,79.8855,276.2875,83.7847,0,U,63023,999,7730,.70568602E-3,.19192E-3,0
STARLINK-32803,2025-032V,2026-06-26T18:16:50.918880,15.27552987,.00016908,43.0029,79.8503,263.4497,96.6162,0,U,63024,999,7714,-.78828413E-4,-.2429E-4,0
STARLINK-32926,2025-032W,2026-06-26T10:16:48.614016,15.27592997,.0001651,42.9980,81.6409,282.4747,77.5920,0,U,63025,999,7725,.64331E-3,.1749E-3,0
STARLINK-32798,2025-034A,2026-06-26T20:39:26.970912,15.30207841,.00013515,53.1578,123.6625,69.8811,290.2335,0,U,63029,999,7562,.70381598E-3,.20549E-3,0
STARLINK-32779,2025-034B,2026-06-26T02:02:58.839936,15.34398041,.00011983,53.1585,127.3604,85.9017,274.2123,0,U,63030,999,7550,.60783812E-3,.20215E-3,0
STARLINK-32716,2025-034C,2026-06-26T22:51:41.363712,15.34380619,.00010724,53.1576,109.3198,70.6808,289.4311,0,U,63031,999,7583,.57680095E-3,.1915E-3,0
STARLINK-32776,2025-034D,2026-06-26T23:25:02.422272,15.34432158,.00012138,53.1571,109.4627,103.0991,257.0147,0,U,63032,999,7583,.93991695E-3,.31546E-3,0
STARLINK-32772,2025-034E,2026-06-26T22:00:01.999584,15.31700553,.00015783,53.1601,110.6199,94.3105,215.3758,0,U,63033,999,566,-.30103201E-3,-.9695E-4,0
STARLINK-32830,2025-034F,2026-06-26T02:25:09.980544,15.31721336,.0001083,53.1582,113.9580,78.5344,281.5779,0,U,63034,999,7569,.89917116E-3,.27659E-3,0
STARLINK-32801,2025-034G,2026-06-26T23:03:48.587328,15.34392171,.00010425,53.1561,109.3721,91.9300,268.1821,0,U,63035,999,7582,.72085891E-3,.24051E-3,0
STARLINK-32818,2025-034H,2026-06-26T13:18:47.308608,15.30195337,.0001247,53.1585,112.5239,90.6377,269.4767,0,U,63036,999,7575,.54874E-3,.15925E-3,0
STARLINK-32810,2025-034J,2026-06-26T12:55:42.794400,15.34398050,.0001471,53.1602,111.7177,89.0050,271.1121,0,U,63037,999,7576,.62327E-3,.20739E-3,0
STARLINK-32812,2025-034K,2026-06-26T19:41:03.241824,15.30241488,.0001304,53.1584,111.3306,71.0069,289.1073,0,U,63038,999,7579,.93750743E-3,.27546E-3,0
STARLINK-32811,2025-034L,2026-06-26T19:29:04.860384,15.34380263,.00019767,53.1597,110.5764,109.2037,250.9179,0,U,63039,999,7580,.12776686E-2,.43013E-3,0
STARLINK-32832,2025-034M,2026-06-26T13:16:08.776704,15.31746685,.0001507,53.1592,111.7991,144.5433,215.5669,0,U,63040,999,7576,.67858E-3,.20781E-3,0
STARLINK-32820,2025-034N,2026-06-26T19:33:29.045664,15.30177444,.00010009,53.1590,111.2989,67.9703,292.1405,0,U,63041,999,7579,.77822897E-3,.22744E-3,0
STARLINK-32795,2025-034P,2026-06-26T23:00:46.856160,15.34412202,.00012878,53.1579,109.3568,112.2270,247.8870,0,U,63042,999,7583,.10732297E-2,.36073E-3,0
STARLINK-32827,2025-034Q,2026-06-26T20:59:57.294816,15.34416374,.00012721,53.1565,122.3325,88.3653,271.7495,0,U,63043,999,7564,.12218436E-2,.41154E-3,0
STARLINK-32735,2025-034R,2026-06-26T20:32:42.037440,15.34417140,.00011584,53.1572,122.2140,99.3994,260.7139,0,U,63044,999,7564,.96282012E-3,.32312E-3,0
STARLINK-32828,2025-034S,2026-06-26T22:31:25.302720,15.34387530,.00013499,53.1583,123.4296,338.4990,21.5956,0,U,63045,999,7563,.10993234E-2,.36935E-3,0
STARLINK-32738,2025-034T,2026-06-26T19:07:52.405248,15.34395033,.00022276,53.1576,110.4817,86.4018,273.7239,0,U,63046,999,7580,.73130153E-3,.24409E-3,0
STARLINK-32590,2025-034U,2026-06-26T13:20:18.115008,15.30204788,.0001123,53.1573,112.5246,102.0077,258.1050,0,U,63047,999,7574,.52237E-3,.15146E-3,0
STARLINK-32790,2025-034V,2026-06-26T19:23:01.077504,15.34385212,.00019076,53.1588,110.5446,98.3343,261.7876,0,U,63048,999,7580,.38622998E-3,.12689E-3,0
STARLINK-32829,2025-034W,2026-06-26T20:56:53.655072,15.34437930,.00011905,53.1570,122.3165,93.8377,266.2762,0,U,63049,999,7564,.72004203E-3,.24059E-3,0
